KUIPER-00629            
1 69783U 26151W   26194.56445488  .00011215  00000+0  31561-3 0  9992
2 69783  51.8735 188.3068 0007214 140.5053 219.6461 15.36945234  1765
KUIPER-00631            
1 69784U 26151X   26194.56613764  .00010863  00000+0  30825-3 0  9997
2 69784  51.8701 188.3183 0007831 148.8485 211.2967 15.36717343  1769
KUIPER-00634            
1 69785U 26151Y   26194.42869586  .00007771  00000+0  21681-3 0  9992
2 69785  51.8762 188.8963 0003753 128.5208 231.6116 15.37708366  1741
KUIPER-00639            
1 69786U 26151Z   26194.56994360  .00012363  00000+0  35834-3 0  9995
2 69786  51.8684 188.3396 0009710 155.0519 205.0938 15.35898155  1762
KUIPER-00641            
1 69787U 26151AA  26194.63899104  .00009713  00000+0  29123-3 0  9993
2 69787  51.8671 188.0509 0010516 153.0740 207.0793 15.35094393  1776
KUIPER-00644            
1 69788U 26151AB  26194.56748598  .00011156  00000+0  31805-3 0  9990
2 69788  51.8731 188.3261 0008501 152.0590 208.0854 15.36536999  1767
KUIPER-00646            
1 69789U 26151AC  26194.43947478  .00027353  00000+0  77620-3 0  9996
2 69789  51.8702 188.9638 0010038 161.9649 198.1695 15.35967857  1742
KUIPER-00647            
1 69790U 26151AD  26194.57267955  .00009994  00000+0  29430-3 0  9995
2 69790  51.8671 188.3556 0010603 160.0161 200.1242 15.35630920  1761
KUIPER-00662            
1 69791U 26151AE  26194.82697637 -.00000482  00000+0 -24634-5 0  9996
2 69791  51.8721 187.0643 0008447 148.8316 211.3173 15.36575137  1801
